ORBCOMM FM16 [-]        
1 25417U 98046E   23357.59920025  .00002229  00000+0  81617-3 0  9998
2 25417  44.9928 217.4576 0004250  88.3468 271.7866 14.35503218326344
ORBCOMM FM13 [+]        
1 25420U 98046H   23357.55126065  .00001577  00000+0  60021-3 0  9991
2 25420  44.9969 224.8665 0004919  74.2084 285.9305 14.34780443325377
ORBCOMM FM21 [-]        
1 25475U 98053A   23357.29003173  .00001848  00000+0  69504-3 0  9990
2 25475  45.0102 310.2604 0001974 327.5285  32.5441 14.34782265319358
ORBCOMM FM22 [-]        
1 25476U 98053B   23357.24341104  .00002183  00000+0  80537-3 0  9997
2 25476  45.0093 308.2705 0003297 354.9305   5.1509 14.35192455319330
ORBCOMM FM23 [-]        
1 25477U 98053C   23357.25084858  .00002056  00000+0  76768-3 0  9999
2 25477  45.0102 312.8955 0002772 343.9075  16.1684 14.34777911319497
