<?xml version="1.0" encoding="UTF-8"?>
<ndm xmlns:xsi="http://www.w3.org/2001/XMLSchema-instance" xsi:noNamespaceSchemaLocation="https://sanaregistry.org/r/ndmxml_unqualified/ndmxml-2.0.0-master-2.0.xsd">
<omm id="CCSDS_OMM_VERS" version="2.0">
<header><CREATION_DATE/><ORIGINATOR/></header><body><segment><metadata><OBJECT_NAME>ORBCOMM FM16 [-]</OBJECT_NAME><OBJECT_ID>1998-046E</OBJECT_ID><CENTER_NAME>EARTH</CENTER_NAME><REF_FRAME>TEME</REF_FRAME><TIME_SYSTEM>UTC</TIME_SYSTEM><MEAN_ELEMENT_THEORY>SGP4</MEAN_ELEMENT_THEORY></metadata><data><meanElements><EPOCH>2023-12-23T14:22:50.901600</EPOCH><MEAN_MOTION>14.35503218</MEAN_MOTION><ECCENTRICITY>.000425</ECCENTRICITY><INCLINATION>44.9928</INCLINATION><RA_OF_ASC_NODE>217.4576</RA_OF_ASC_NODE><ARG_OF_PERICENTER>88.3468</ARG_OF_PERICENTER><MEAN_ANOMALY>271.7866</MEAN_ANOMALY></meanElements><tleParameters><EPHEMERIS_TYPE>0</EPHEMERIS_TYPE><CLASSIFICATION_TYPE>U</CLASSIFICATION_TYPE><NORAD_CAT_ID>25417</NORAD_CAT_ID><ELEMENT_SET_NO>999</ELEMENT_SET_NO><REV_AT_EPOCH>32634</REV_AT_EPOCH><BSTAR>.81617E-3</BSTAR><MEAN_MOTION_DOT>.2229E-4</MEAN_MOTION_DOT><MEAN_MOTION_DDOT>0</MEAN_MOTION_DDOT></tleParameters></data></segment></body></omm>
<omm id="CCSDS_OMM_VERS" version="2.0">
<header><CREATION_DATE/><ORIGINATOR/></header><body><segment><metadata><OBJECT_NAME>ORBCOMM FM13 [+]</OBJECT_NAME><OBJECT_ID>1998-046H</OBJECT_ID><CENTER_NAME>EARTH</CENTER_NAME><REF_FRAME>TEME</REF_FRAME><TIME_SYSTEM>UTC</TIME_SYSTEM><MEAN_ELEMENT_THEORY>SGP4</MEAN_ELEMENT_THEORY></metadata><data><meanElements><EPOCH>2023-12-23T13:13:48.920160</EPOCH><MEAN_MOTION>14.34780443</MEAN_MOTION><ECCENTRICITY>.0004919</ECCENTRICITY><INCLINATION>44.9969</INCLINATION><RA_OF_ASC_NODE>224.8665</RA_OF_ASC_NODE><ARG_OF_PERICENTER>74.2084</ARG_OF_PERICENTER><MEAN_ANOMALY>285.9305</MEAN_ANOMALY></meanElements><tleParameters><EPHEMERIS_TYPE>0</EPHEMERIS_TYPE><CLASSIFICATION_TYPE>U</CLASSIFICATION_TYPE><NORAD_CAT_ID>25420</NORAD_CAT_ID><ELEMENT_SET_NO>999</ELEMENT_SET_NO><REV_AT_EPOCH>32537</REV_AT_EPOCH><BSTAR>.60021E-3</BSTAR><MEAN_MOTION_DOT>.1577E-4</MEAN_MOTION_DOT><MEAN_MOTION_DDOT>0</MEAN_MOTION_DDOT></tleParameters></data></segment></body></omm>
<omm id="CCSDS_OMM_VERS" version="2.0">
<header><CREATION_DATE/><ORIGINATOR/></header><body><segment><metadata><OBJECT_NAME>ORBCOMM FM21 [-]</OBJECT_NAME><OBJECT_ID>1998-053A</OBJECT_ID><CENTER_NAME>EARTH</CENTER_NAME><REF_FRAME>TEME</REF_FRAME><TIME_SYSTEM>UTC</TIME_SYSTEM><MEAN_ELEMENT_THEORY>SGP4</MEAN_ELEMENT_THEORY></metadata><data><meanElements><EPOCH>2023-12-23T06:57:38.741472</EPOCH><MEAN_MOTION>14.34782265</MEAN_MOTION><ECCENTRICITY>.0001974</ECCENTRICITY><INCLINATION>45.0102</INCLINATION><RA_OF_ASC_NODE>310.2604</RA_OF_ASC_NODE><ARG_OF_PERICENTER>327.5285</ARG_OF_PERICENTER><MEAN_ANOMALY>32.5441</MEAN_ANOMALY></meanElements><tleParameters><EPHEMERIS_TYPE>0</EPHEMERIS_TYPE><CLASSIFICATION_TYPE>U</CLASSIFICATION_TYPE><NORAD_CAT_ID>25475</NORAD_CAT_ID><ELEMENT_SET_NO>999</ELEMENT_SET_NO><REV_AT_EPOCH>31935</REV_AT_EPOCH><BSTAR>.69504E-3</BSTAR><MEAN_MOTION_DOT>.1848E-4</MEAN_MOTION_DOT><MEAN_MOTION_DDOT>0</MEAN_MOTION_DDOT></tleParameters></data></segment></body></omm>
<omm id="CCSDS_OMM_VERS" version="2.0">
<header><CREATION_DATE/><ORIGINATOR/></header><body><segment><metadata><OBJECT_NAME>ORBCOMM FM22 [-]</OBJECT_NAME><OBJECT_ID>1998-053B</OBJECT_ID><CENTER_NAME>EARTH</CENTER_NAME><REF_FRAME>TEME</REF_FRAME><TIME_SYSTEM>UTC</TIME_SYSTEM><MEAN_ELEMENT_THEORY>SGP4</MEAN_ELEMENT_THEORY></metadata><data><meanElements><EPOCH>2023-12-23T05:50:30.713856</EPOCH><MEAN_MOTION>14.35192455</MEAN_MOTION><ECCENTRICITY>.0003297</ECCENTRICITY><INCLINATION>45.0093</INCLINATION><RA_OF_ASC_NODE>308.2705</RA_OF_ASC_NODE><ARG_OF_PERICENTER>354.9305</ARG_OF_PERICENTER><MEAN_ANOMALY>5.1509</MEAN_ANOMALY></meanElements><tleParameters><EPHEMERIS_TYPE>0</EPHEMERIS_TYPE><CLASSIFICATION_TYPE>U</CLASSIFICATION_TYPE><NORAD_CAT_ID>25476</NORAD_CAT_ID><ELEMENT_SET_NO>999</ELEMENT_SET_NO><REV_AT_EPOCH>31933</REV_AT_EPOCH><BSTAR>.80537E-3</BSTAR><MEAN_MOTION_DOT>.2183E-4</MEAN_MOTION_DOT><MEAN_MOTION_DDOT>0</MEAN_MOTION_DDOT></tleParameters></data></segment></body></omm>
<omm id="CCSDS_OMM_VERS" version="2.0">
<header><CREATION_DATE/><ORIGINATOR/></header><body><segment><metadata><OBJECT_NAME>ORBCOMM FM23 [-]</OBJECT_NAME><OBJECT_ID>1998-053C</OBJECT_ID><CENTER_NAME>EARTH</CENTER_NAME><REF_FRAME>TEME</REF_FRAME><TIME_SYSTEM>UTC</TIME_SYSTEM><MEAN_ELEMENT_THEORY>SGP4</MEAN_ELEMENT_THEORY></metadata><data><meanElements><EPOCH>2023-12-23T06:01:13.317312</EPOCH><MEAN_MOTION>14.34777911</MEAN_MOTION><ECCENTRICITY>.0002772</ECCENTRICITY><INCLINATION>45.0102</INCLINATION><RA_OF_ASC_NODE>312.8955</RA_OF_ASC_NODE><ARG_OF_PERICENTER>343.9075</ARG_OF_PERICENTER><MEAN_ANOMALY>16.1684</MEAN_ANOMALY></meanElements><tleParameters><EPHEMERIS_TYPE>0</EPHEMERIS_TYPE><CLASSIFICATION_TYPE>U</CLASSIFICATION_TYPE><NORAD_CAT_ID>25477</NORAD_CAT_ID><ELEMENT_SET_NO>999</ELEMENT_SET_NO><REV_AT_EPOCH>31949</REV_AT_EPOCH><BSTAR>.76768E-3</BSTAR><MEAN_MOTION_DOT>.2056E-4</MEAN_MOTION_DOT><MEAN_MOTION_DDOT>0</MEAN_MOTION_DDOT></tleParameters></data></segment></body></omm>

</ndm>
